00001    3.34  0.12 K183N 352.23052   73.11528   80.30992   10.59351  0.0755347  0.21413094   2.7670463  0 MPO431490  6689 114 1801-2018 0.60 M-v 30h MPC        0000              (1) Ceres
00003    5.33  0.32 K183N 304.48004  248.18190  169.85871   12.98973  0.2568879  0.22605675   2.6688514  0 MPO431490  6901 104 1821-2017 0.59 M-v 38h MPC        0000              (3) Juno
00004    3.20  0.32 K183N 347.18586  150.76142  103.81517    7.14071  0.0890680  0.27149114   2.3621036  0 MPO410073  6903 100 1821-2017 0.60 M-p 18h MPC        0000              (4) Vesta
00005    6.85  0.15 K183N 186.83093  358.74618  141.58366    5.36774  0.1913586  0.23873781   2.5734866  0 MPO425796  2447  75 1845-2017 0.55 M-v 38h MPC        0000              (5) Astraea
00006    5.71  0.24 K183N 341.78197  239.84946  138.64763   14.73711  0.2028812  0.26097266   2.4251543  0 MPO431490  5661  88 1848-2017 0.53 M-v 38h MPC        0000              (6) Hebe
00008    6.49  0.28 K183N  74.15366  285.27637  110.89998    5.88681  0.1569509  0.30181636   2.2011055  0 MPO431490  2375  85 1847-2018 0.63 M-v 38h MPC        0000              (8) Flora
00009    6.28  0.17 K183N 169.98541    6.32157   68.90904    5.57657  0.1225377  0.26728234   2.3868358  0 MPO412156  2526  75 1849-2017 0.60 M-v 38h MPC        0000              (9) Metis
00010    5.43  0.15 K183N  81.55979  312.10662  283.21611    3.83175  0.1126680  0.17711736   3.1402336  0 MPO425796  2984  89 1849-2017 0.57 M-v 38h MPC        0000             (10) Hygiea
00011    6.55  0.15 K183N 175.99401  195.80589  125.55862    4.63002  0.1005701  0.25667261   2.4521651  0 MPO431490  5009  91 1850-2018 0.58 M-v 38h MPC        0000             (11) Parthenope
00012    7.24  0.22 K183N  22.83804   69.60718  235.41124    8.37314  0.2199871  0.27641962   2.3339424  0 MPO416701  2580  75 1850-2017 0.62 M-v 38h MPC        0000             (12) Victoria
00013    6.74  0.15 K183N  92.00039   80.75685   43.23608   16.54028  0.0841891  0.23811913   2.5779423  0 MPO431490  2060  66 1850-2018 0.58 M-v 38h MPC        0000             (13) Egeria
00014    6.30  0.15 K183N  70.02239   97.92278   86.12326    9.12142  0.1667498  0.23703346   2.5858080  0 MPO431490  2380  72 1851-2017 0.62 M-v 38h MPC        0000             (14) Irene
00015    5.28  0.23 K183N 192.25492   98.00355  293.04252   11.73345  0.1861533  0.22895064   2.6463146  0 MPO412156  2247  77 1851-2017 0.56 M-v 38h MPC        0000             (15) Eunomia
00016    5.90  0.20 K183N 210.48491  227.89875  150.19051    3.09509  0.1339057  0.19674539   2.9277434  0 MPO431490  2843  84 1852-2018 0.55 M-v 38h MPC        0000             (16) Psyche
00018    6.51  0.25 K183N 154.03825  227.83950  150.46473   10.13235  0.2186192  0.28340548   2.2954291  0 MPO431490  4684  73 1852-2018 0.55 M-v 38h MPC        0000             (18) Melpomene
00019    7.13  0.10 K183N  94.01024  182.05893  211.14476    1.57391  0.1586670  0.25834758   2.4415546  0 MPO431490  2693  87 1852-2018 0.57 M-v 38h MPC        0000             (19) Fortuna
00021    7.35  0.11 K183N 240.62102  249.91806   80.87132    3.06377  0.1640975  0.25933042   2.4353819  0 MPO431490  4367  71 1866-2018 0.38 M-v 38h MPC        0000             (21) Lutetia
00022    6.45  0.21 K183N 118.32541  355.15322   66.05934   13.71717  0.0989007  0.19847503   2.9107091  0 MPO431490  2533  76 1854-2018 0.47 M-v 38h MPC        0000             (22) Kalliope
00023    6.95  0.15 K183N 243.12209   60.68464   66.84784   10.11426  0.2351639  0.23170256   2.6253195  0 MPO431490  1981  61 1866-2017 0.46 M-v 38h MPC        0000             (23) Thalia
00026    7.4   0.15 K183N  14.48960  193.50592   45.78101    3.56361  0.0904811  0.22782366   2.6550344  0 MPO416701  1885  69 1861-2017 0.47 M-v 38h MPC        0000             (26) Proserpina
00027    7.0   0.15 K183N 225.54167  356.53221   94.78804    1.58371  0.1732068  0.27427058   2.3461183  0 MPO421624  2353  69 1853-2017 0.55 M-v 38h MPC        0000             (27) Euterpe
00029    5.85  0.20 K183N 187.96995   63.03586  356.37447    6.08233  0.0721565  0.24125137   2.5555802  0 MPO412156  2106  89 1855-2017 0.60 M-v 38h MPC        0000             (29) Amphitrite
00030    7.57  0.15 K183N 280.67111   87.47021  307.47724    2.09587  0.1273872  0.27098247   2.3650586  0 MPO416701  2957  71 1860-2017 0.45 M-v 38h MPC        0000             (30) Urania
00032    7.56  0.15 K183N 297.29530  339.44003  220.44164    5.52467  0.0804203  0.23682114   2.5873533  0 MPO431490  1778  68 1864-2018 0.56 M-v 38h MPC        0000             (32) Pomona
00037    7.29  0.24 K183N 249.64532   62.92571    7.26820    3.07122  0.1754824  0.22957169   2.6415398  0 MPO421624  2273  76 1855-2017 0.52 M-v 38h MPC        0000             (37) Fides
00039    6.0   0.15 K183N 216.69404  208.48159  157.07162   10.36984  0.1120953  0.21362624   2.7714028  0 MPO431490  5372  87 1856-2018 0.55 M-v 38h MPC        0000             (39) Laetitia
00040    7.0   0.15 K183N 351.92245  269.87188   94.19113    4.25721  0.0468334  0.28871855   2.2671813  0 MPO431490  4769  66 1864-2017 0.51 M-v 38h MPC        0000             (40) Harmonia
00043    7.93  0.11 K183N  17.47834   16.19136  264.81555    3.47124  0.1682623  0.30142276   2.2030213  0 MPO416701  2057  69 1864-2017 0.55 M-v 38h MPC        0000             (43) Ariadne
00045    7.46  0.07 K183N 310.02627   88.66580  147.67020    6.60352  0.0841368  0.21970658   2.7200320  0 MPO431490  2728  69 1866-2018 0.45 M-v 38h MPC        0000             (45) Eugenia
00046    8.36  0.06 K183N 331.67372  177.42517  181.09109    2.34980  0.1717661  0.24561411   2.5252275  0 MPO421624  2871  71 1864-2017 0.46 M-v 38h MPC        0000             (46) Hestia
00047    7.84  0.16 K183N 331.74731  314.58585    3.08287    4.97562  0.1297007  0.20155302   2.8809994  0 MPO416701  2116  70 1860-2017 0.48 M-v 38h MPC        0000             (47) Aglaja
00051    7.35  0.08 K183N 347.61900    2.66728  176.01622    9.98016  0.0669653  0.27094570   2.3652727  0 MPO431490  4598  79 1863-2017 0.57 M-v 38h MPC        0000             (51) Nemausa
00052    6.31  0.18 K183N 164.57449  343.68267  128.60811    7.47825  0.1101858  0.18115828   3.0933608  0 MPO416701  2640  78 1860-2017 0.50 M-v 38h MPC        0000             (52) Europa
00063    7.55  0.25 K183N  33.32809  295.81337  337.74171    5.77645  0.1268676  0.26594792   2.3948132  0 MPO416701  2198  64 1861-2017 0.51 M-v 38h MPC        0000             (63) Ausonia
00070    8.11  0.14 K183N 337.31268  255.31756   47.69597   11.59529  0.1804175  0.23298286   2.6156928  0 MPO416702  1872  56 1866-2017 0.45 M-v 38h MPC        0000             (70) Panopaea
00080    7.98  0.15 K183N 343.92130  139.67984  218.69842    8.67579  0.1998455  0.28335647   2.2956938  0 MPO421624  1970  63 1865-2017 0.55 M-v 38h MPC        0000             (80) Sappho
00088    7.04  0.14 K183N 323.64552   36.13939  276.46329    5.21348  0.1617097  0.21386086   2.7693755  0 MPO416702  2781  68 1866-2017 0.50 M-v 38h MPC        0000             (88) Thisbe
00115    7.51  0.12 K183N 269.28771   97.17044  308.80073   11.59331  0.1929329  0.26858389   2.3791185  0 MPO416702  1799  60 1872-2017 0.47 M-v 38h MPC        0000            (115) Thyra
00128    7.49  0.15 K183N 345.48728  303.82213   76.24308    6.24533  0.1272357  0.21616008   2.7497026  0 MPO431491  1956  66 1872-2017 0.45 M-v 38h MPC        0000            (128) Nemesis
00140    8.34  0.15 K183N 331.49337  196.66412  107.18212    3.18528  0.2141434  0.21801762   2.7340617  0 MPO416703  2832  52 1877-2017 0.44 M-v 38h MPC        0000            (140) Siwa
00144    7.91  0.17 K183N 276.29342  294.54089   76.19609    4.81421  0.2343819  0.22776857   2.6554625  0 MPO416703  1954  57 1905-2017 0.47 M-v 38h MPC        0000            (144) Vibilia
00145    8.13  0.15 K183N   8.93123   44.08499   77.41286   12.63526  0.1441187  0.22555282   2.6728251  0 MPO431491  1450  52 1885-2018 0.50 M-v 38h MPC        0000            (145) Adeona
00148    7.63  0.15 K183N 278.57944  252.78753  145.01085   25.29067  0.1868339  0.21369443   2.7708132  0 MPO421625  2565  64 1879-2017 0.52 M-v 38h MPC        0000            (148) Gallia
00173    7.66  0.01 K183N 307.26740  228.88511  148.17946   14.19653  0.2084583  0.21701372   2.7424871  0 MPO421626  2007  69 1879-2017 0.44 M-v 38h MPC        0000            (173) Ino
00187    8.16  0.15 K183N 348.72622  196.93670   21.70713   10.58784  0.2416803  0.21876168   2.7278587  0 MPO431492  1956  48 1902-2018 0.40 M-v 38h MPC        0000            (187) Lamberta
00192    7.13  0.03 K183N 252.49475   30.52897  343.13909    6.79758  0.2449781  0.26440474   2.4041223  0 MPO416703  2113  64 1879-2017 0.49 M-v 38h MPC        0000            (192) Nausikaa
00196    6.54  0.15 K183N  21.06485  198.70510   72.32288    7.26307  0.0159524  0.17947412   3.1126825  0 MPO416703  2196  73 1879-2017 0.50 M-v 38h MPC        0000            (196) Philomela
00198    8.33  0.15 K183N 283.93496   89.08025  268.26117    9.31996  0.2268388  0.25553025   2.4594679  0 MPO416703  1731  49 1898-2017 0.45 M-v 38h MPC        0000            (198) Ampella
00230    7.35  0.27 K183N 275.94835  140.14689  239.85395    9.45100  0.0613567  0.26811929   2.3818661  0 MPO416704  2048  66 1882-2017 0.48 M-v 38h MPC        0000            (230) Athamantis
00346    7.13  0.15 K183N 315.10524  292.14591   91.94601    8.75208  0.1016480  0.21085400   2.7956415  0 MPO431494  1765  57 1892-2017 0.44 M-v 38h MPC        0000            (346) Hermentaria
00354    6.44  0.37 K183N 250.05447    5.55128  140.36555   18.39827  0.1142867  0.21048746   2.7988862  0 MPO431494  2377  77 1893-2018 0.59 M-v 38h MPC        0000            (354) Eleonora
00511    6.22  0.16 K183N 263.85363  337.54861  107.60487   15.93887  0.1880894  0.17515497   3.1636450  0 MPO431497  2571  80 1903-2017 0.47 M-v 38h MPC        0000            (511) Davida
00584    8.71  0.24 K183N 327.70686   85.47405  282.03951   10.72324  0.2332960  0.26954581   2.3734549  0 MPO421631  1634  48 1906-2017 0.43 M-v 38h MPC        0000            (584) Semiramis
00674    7.42  0.15 K183N 266.03146   41.93959   58.13861   13.51013  0.1955229  0.19733914   2.9218678  0 MPO431499  1533  53 1901-2017 0.48 M-v 38h MPC        0000            (674) Rachele
